[
    {
        "Altitude(m)": 557544.7335065558,
        "Argument of Periapsis(deg)": 0.013245982221427002,
        "Eccentricity": 0.0,
        "Inclination(deg)": 53.0,
        "Latitude(deg)": 42.758388504893325,
        "Longitude(deg)": 149.55795404322413,
        "Mean Anomaly(deg)": 122.00138573515513,
        "RAAN(deg)": 114.98028673705602,
        "Satellite Name": "Starlink Shell 1 512",
        "Satellite Number": 512,
        "Semi-Major Axis(m)": 6931778.249405717,
        "Time(s)": 380
    },
    {
        "Altitude(m)": 557464.6855699942,
        "Argument of Periapsis(deg)": 0.013594560700938237,
        "Eccentricity": 0.0,
        "Inclination(deg)": 53.0,
        "Latitude(deg)": 42.39455663649684,
        "Longitude(deg)": 150.20910226084123,
        "Mean Anomaly(deg)": 122.62821693871192,
        "RAAN(deg)": 114.97976796697856,
        "Satellite Name": "Starlink Shell 1 512",
        "Satellite Number": 512,
        "Semi-Major Axis(m)": 6931778.249405717,
        "Time(s)": 390
    },
    {
        "Altitude(m)": 557384.070892216,
        "Argument of Periapsis(deg)": 0.013943139180449475,
        "Eccentricity": 0.0,
        "Inclination(deg)": 53.0,
        "Latitude(deg)": 42.02656774725564,
        "Longitude(deg)": 150.8522598680343,
        "Mean Anomaly(deg)": 123.2550481422686,
        "RAAN(deg)": 114.97924919690107,
        "Satellite Name": "Starlink Shell 1 512",
        "Satellite Number": 512,
        "Semi-Major Axis(m)": 6931778.249405717,
        "Time(s)": 400
    },
    {
        "Altitude(m)": 557302.9408779455,
        "Argument of Periapsis(deg)": 0.014291717659960712,
        "Eccentricity": 0.0,
        "Inclination(deg)": 53.0,
        "Latitude(deg)": 41.6545209418242,
        "Longitude(deg)": 151.4875334592266,
        "Mean Anomaly(deg)": 123.88187934582534,
        "RAAN(deg)": 114.97873042682362,
        "Satellite Name": "Starlink Shell 1 512",
        "Satellite Number": 512,
        "Semi-Major Axis(m)": 6931778.249405717,
        "Time(s)": 410
    },
    {
        "Altitude(m)": 557221.3474032298,
        "Argument of Periapsis(deg)": 0.014640296139471948,
        "Eccentricity": 0.0,
        "Inclination(deg)": 53.0,
        "Latitude(deg)": 41.278513470021664,
        "Longitude(deg)": 152.11503177042752,
        "Mean Anomaly(deg)": 124.508710549382,
        "RAAN(deg)": 114.97821165674614,
        "Satellite Name": "Starlink Shell 1 512",
        "Satellite Number": 512,
        "Semi-Major Axis(m)": 6931778.249405717,
        "Time(s)": 420
    },
    {
        "Altitude(m)": 557139.3427892799,
        "Argument of Periapsis(deg)": 0.014988874618983185,
        "Eccentricity": 0.0,
        "Inclination(deg)": 53.0,
        "Latitude(deg)": 40.898640721159126,
        "Longitude(deg)": 152.734865860118,
        "Mean Anomaly(deg)": 125.13554175293875,
        "RAAN(deg)": 114.97769288666866,
        "Satellite Name": "Starlink Shell 1 512",
        "Satellite Number": 512,
        "Semi-Major Axis(m)": 6931778.249405717,
        "Time(s)": 430
    },
    {
        "Altitude(m)": 557056.9797760387,
        "Argument of Periapsis(deg)": 0.015337453098494424,
        "Eccentricity": 0.0,
        "Inclination(deg)": 53.0,
        "Latitude(deg)": 40.51499622279688,
        "Longitude(deg)": 153.34714930825385,
        "Mean Anomaly(deg)": 125.76237295649551,
        "RAAN(deg)": 114.97717411659119,
        "Satellite Name": "Starlink Shell 1 512",
        "Satellite Number": 512,
        "Semi-Major Axis(m)": 6931778.249405717,
        "Time(s)": 440
    },
    {
        "Altitude(m)": 556974.3114955197,
        "Argument of Periapsis(deg)": 0.01568603157800566,
        "Eccentricity": 0.0,
        "Inclination(deg)": 53.0,
        "Latitude(deg)": 40.12767164357601,
        "Longitude(deg)": 153.95199692016126,
        "Mean Anomaly(deg)": 126.38920416005213,
        "RAAN(deg)": 114.97665534651372,
        "Satellite Name": "Starlink Shell 1 512",
        "Satellite Number": 512,
        "Semi-Major Axis(m)": 6931778.249405717,
        "Time(s)": 450
    },
    {
        "Altitude(m)": 556891.3914449093,
        "Argument of Periapsis(deg)": 0.0160346100575169,
        "Eccentricity": 0.0,
        "Inclination(deg)": 53.0,
        "Latitude(deg)": 39.736756799779904,
        "Longitude(deg)": 154.5495249606508,
        "Mean Anomaly(deg)": 127.01603536360894,
        "RAAN(deg)": 114.97613657643623,
        "Satellite Name": "Starlink Shell 1 512",
        "Satellite Number": 512,
        "Semi-Major Axis(m)": 6931778.249405717,
        "Time(s)": 460
    },
    {
        "Altitude(m)": 556808.2734594278,
        "Argument of Periapsis(deg)": 0.016383188537028134,
        "Eccentricity": 0.0,
        "Inclination(deg)": 53.0,
        "Latitude(deg)": 39.34233966530388,
        "Longitude(deg)": 155.13985140500384,
        "Mean Anomaly(deg)": 127.64286656716557,
        "RAAN(deg)": 114.97561780635878,
        "Satellite Name": "Starlink Shell 1 512",
        "Satellite Number": 512,
        "Semi-Major Axis(m)": 6931778.249405717,
        "Time(s)": 470
    },
    {
        "Altitude(m)": 556725.0116850132,
        "Argument of Periapsis(deg)": 0.01673176701653937,
        "Eccentricity": 0.0,
        "Inclination(deg)": 53.0,
        "Latitude(deg)": 38.94450638472332,
        "Longitude(deg)": 155.72309469344498,
        "Mean Anomaly(deg)": 128.26969777072233,
        "RAAN(deg)": 114.9750990362813,
        "Satellite Name": "Starlink Shell 1 512",
        "Satellite Number": 512,
        "Semi-Major Axis(m)": 6931778.249405717,
        "Time(s)": 480
    },
    {
        "Altitude(m)": 556641.6605507932,
        "Argument of Periapsis(deg)": 0.017080345496050607,
        "Eccentricity": 0.0,
        "Inclination(deg)": 53.0,
        "Latitude(deg)": 38.54334128916536,
        "Longitude(deg)": 156.29937401429783,
        "Mean Anomaly(deg)": 128.89652897427908,
        "RAAN(deg)": 114.97458026620383,
        "Satellite Name": "Starlink Shell 1 512",
        "Satellite Number": 512,
        "Semi-Major Axis(m)": 6931778.249405717,
        "Time(s)": 490
    },
    {
        "Altitude(m)": 556558.2747413688,
        "Argument of Periapsis(deg)": 0.017428923975561842,
        "Eccentricity": 0.0,
        "Inclination(deg)": 53.0,
        "Latitude(deg)": 38.138926914707426,
        "Longitude(deg)": 156.86880960237693,
        "Mean Anomaly(deg)": 129.52336017783574,
        "RAAN(deg)": 114.97406149612635,
        "Satellite Name": "Starlink Shell 1 512",
        "Satellite Number": 512,
        "Semi-Major Axis(m)": 6931778.249405717,
        "Time(s)": 500
    },
    {
        "Altitude(m)": 556474.909168946,
        "Argument of Periapsis(deg)": 0.01777750245507308,
        "Eccentricity": 0.0,
        "Inclination(deg)": 53.0,
        "Latitude(deg)": 37.73134402304431,
        "Longitude(deg)": 157.43152153914787,
        "Mean Anomaly(deg)": 130.15019138139252,
        "RAAN(deg)": 114.97354272604889,
        "Satellite Name": "Starlink Shell 1 512",
        "Satellite Number": 512,
        "Semi-Major Axis(m)": 6931778.249405717,
        "Time(s)": 510
    },
    {
        "Altitude(m)": 556391.6189452934,
        "Argument of Periapsis(deg)": 0.018126080934584315,
        "Eccentricity": 0.0,
        "Inclination(deg)": 53.0,
        "Latitude(deg)": 37.32067162417502,
        "Longitude(deg)": 157.98763007979474,
        "Mean Anomaly(deg)": 130.77702258494915,
        "RAAN(deg)": 114.9730239559714,
        "Satellite Name": "Starlink Shell 1 512",
        "Satellite Number": 512,
        "Semi-Major Axis(m)": 6931778.249405717,
        "Time(s)": 520
    },
    {
        "Altitude(m)": 556308.4593535773,
        "Argument of Periapsis(deg)": 0.018474659414095554,
        "Eccentricity": 0.0,
        "Inclination(deg)": 53.0,
        "Latitude(deg)": 36.90698700087933,
        "Longitude(deg)": 158.5372559937114,
        "Mean Anomaly(deg)": 131.40385378850593,
        "RAAN(deg)": 114.97250518589395,
        "Satellite Name": "Starlink Shell 1 512",
        "Satellite Number": 512,
        "Semi-Major Axis(m)": 6931778.249405717,
        "Time(s)": 530
    },
    {
        "Altitude(m)": 556225.4858200357,
        "Argument of Periapsis(deg)": 0.018823237893606792,
        "Eccentricity": 0.0,
        "Inclination(deg)": 53.0,
        "Latitude(deg)": 36.49036573477415,
        "Longitude(deg)": 159.08051940492172,
        "Mean Anomaly(deg)": 132.0306849920626,
        "RAAN(deg)": 114.97198641581647,
        "Satellite Name": "Starlink Shell 1 512",
        "Satellite Number": 512,
        "Semi-Major Axis(m)": 6931778.249405717,
        "Time(s)": 540
    },
    {
        "Altitude(m)": 556142.753885587,
        "Argument of Periapsis(deg)": 0.019171816373118027,
        "Eccentricity": 0.0,
        "Inclination(deg)": 53.0,
        "Latitude(deg)": 36.07088173374182,
        "Longitude(deg)": 159.61754015756682,
        "Mean Anomaly(deg)": 132.65751619561934,
        "RAAN(deg)": 114.97146764573897,
        "Satellite Name": "Starlink Shell 1 512",
        "Satellite Number": 512,
        "Semi-Major Axis(m)": 6931778.249405717,
        "Time(s)": 550
    },
    {
        "Altitude(m)": 556060.319177276,
        "Argument of Periapsis(deg)": 0.019520394852629266,
        "Eccentricity": 0.0,
        "Inclination(deg)": 53.0,
        "Latitude(deg)": 35.64860726054912,
        "Longitude(deg)": 160.14843819297408,
        "Mean Anomaly(deg)": 133.28434739917608,
        "RAAN(deg)": 114.97094887566152,
        "Satellite Name": "Starlink Shell 1 512",
        "Satellite Number": 512,
        "Semi-Major Axis(m)": 6931778.249405717,
        "Time(s)": 560
    }
]